{"type": "FeatureCollection", "features": [ {"type": "Feature", "properties": {"norad_id": 37474, "name": "FENGYUN 1C DEB", "group": "fengyun-1c-debris", "lat": -79.41508487806246, "lon": -103.09467483701482, "alt_km": 735.4668041695077, "timestamp": "2025-12-17T09:00:17.437500+00:00", "meta": {"OBJECT_NAME": "FENGYUN 1C DEB", "OBJECT_ID": "1999-025EJU", "EPOCH": "2025-12-16T07:21:04.718304", "MEAN_MOTION": 14.75191075, "ECCENTRICITY": 0.01320299, "INCLINATION": 99.1653, "RA_OF_ASC_NODE": 195.9308, "ARG_OF_PERICENTER": 123.8678, "MEAN_ANOMALY": 237.5172, "EPHEMERIS_TYPE": 0, "CLASSIFICATION_TYPE": "U", "NORAD_CAT_ID": 37474, "ELEMENT_SET_NO": 999, "REV_AT_EPOCH": 62428, "BSTAR": 0.00077134704, "MEAN_MOTION_DOT": 5.937e-05, "MEAN_MOTION_DDOT": 0}, "tle": {"line1": "1 37474U 99025EJU 25350.30630461  .00005937  00000+0  77135-3 0  9997", "line2": "2 37474  99.1653 195.9308 0132029 123.8678 237.5172 14.75191075624286"}}, "geometry": {"type": "Point", "coordinates": [-103.09467483701482, -79.41508487806246]}}, {"type": "Feature", "properties": {"norad_id": 37477, "name": "FENGYUN 1C DEB", "group": "fengyun-1c-debris", "lat": -67.76569117447153, "lon": 17.656479482096394, "alt_km": 858.9872807913516, "timestamp": "2025-12-17T09:00:17.437510+00:00", "meta": {"OBJECT_NAME": "FENGYUN 1C DEB", "OBJECT_ID": "1999-025EJX", "EPOCH": "2025-12-16T18:06:36.022176", "MEAN_MOTION": 14.19731482, "ECCENTRICITY": 0.00371355, "INCLINATION": 98.6057, "RA_OF_ASC_NODE": 355.3103, "ARG_OF_PERICENTER": 94.8392, "MEAN_ANOMALY": 265.7026, "EPHEMERIS_TYPE": 0, "CLASSIFICATION_TYPE": "U", "NORAD_CAT_ID": 37477, "ELEMENT_SET_NO": 999, "REV_AT_EPOCH": 81971, "BSTAR": 0.00055952668, "MEAN_MOTION_DOT": 1.15e-05, "MEAN_MOTION_DDOT": 0}, "tle": {"line1": "1 37477U 99025EJX 25350.75458359  .00001150  00000+0  55953-3 0  9990", "line2": "2 37477  98.6057 355.3103 0037135  94.8392 265.7026 14.19731482819713"}}, "geometry": {"type": "Point", "coordinates": [17.656479482096394, -67.76569117447153]}}, {"type": "Feature", "properties": {"norad_id": 37478, "name": "FENGYUN 1C DEB", "group": "fengyun-1c-debris", "lat": -75.1242953579599, "lon": 113.52727469421812, "alt_km": 975.4399325611221, "timestamp": "2025-12-17T09:00:17.437521+00:00", "meta": {"OBJECT_NAME": "FENGYUN 1C DEB", "OBJECT_ID": "1999-025EJY", "EPOCH": "2025-12-14T05:55:23.732544", "MEAN_MOTION": 13.02983973, "ECCENTRICITY": 0.05482188, "INCLINATION": 99.6498, "RA_OF_ASC_NODE": 330.5496, "ARG_OF_PERICENTER": 315.7365, "MEAN_ANOMALY": 40.1108, "EPHEMERIS_TYPE": 0, "CLASSIFICATION_TYPE": "U", "NORAD_CAT_ID": 37478, "ELEMENT_SET_NO": 999, "REV_AT_EPOCH": 56581, "BSTAR": 0.0055489953, "MEAN_MOTION_DOT": 3.525e-05, "MEAN_MOTION_DDOT": 0}, "tle": {"line1": "1 37478U 99025EJY 25348.24680246  .00003525  00000+0  55490-2 0  9997", "line2": "2 37478  99.6498 330.5496 0548218 315.7365  40.1108 13.02983973565818"}}, "geometry": {"type": "Point", "coordinates": [113.52727469421812, -75.1242953579599]}}, {"type": "Feature", "properties": {"norad_id": 37589, "name": "FENGYUN 1C DEB", "group": "fengyun-1c-debris", "lat": 35.028172112337465, "lon": 80.43297320942118, "alt_km": 887.1283344758613, "timestamp": "2025-12-17T09:00:17.437531+00:00", "meta": {"OBJECT_NAME": "FENGYUN 1C DEB", "OBJECT_ID": "1999-025EKH", "EPOCH": "2025-12-14T22:19:52.787712", "MEAN_MOTION": 14.08203479, "ECCENTRICITY": 0.01182522, "INCLINATION": 99.0734, "RA_OF_ASC_NODE": 251.544, "ARG_OF_PERICENTER": 258.1684, "MEAN_ANOMALY": 100.6202, "EPHEMERIS_TYPE": 0, "CLASSIFICATION_TYPE": "U", "NORAD_CAT_ID": 37589, "ELEMENT_SET_NO": 999, "REV_AT_EPOCH": 82615, "BSTAR": 0.0019842502, "MEAN_MOTION_DOT": 3.566e-05, "MEAN_MOTION_DDOT": 0}, "tle": {"line1": "1 37589U 99025EKH 25348.93047208  .00003566  00000+0  19843-2 0  9998", "line2": "2 37589  99.0734 251.5440 0118252 258.1684 100.6202 14.08203479826151"}}, "geometry": {"type": "Point", "coordinates": [80.43297320942118, 35.028172112337465]}}, {"type": "Feature", "properties": {"norad_id": 37594, "name": "FENGYUN 1C DEB", "group": "fengyun-1c-debris", "lat": 32.49370168385112, "lon": 14.964588000269698, "alt_km": 897.8084663384734, "timestamp": "2025-12-17T09:00:17.437541+00:00", "meta": {"OBJECT_NAME": "FENGYUN 1C DEB", "OBJECT_ID": "1999-025EKN", "EPOCH": "2025-12-12T01:13:06.397536", "MEAN_MOTION": 14.11116962, "ECCENTRICITY": 0.00850219, "INCLINATION": 98.7348, "RA_OF_ASC_NODE": 15.4051, "ARG_OF_PERICENTER": 271.7365, "MEAN_ANOMALY": 87.407, "EPHEMERIS_TYPE": 0, "CLASSIFICATION_TYPE": "U", "NORAD_CAT_ID": 37594, "ELEMENT_SET_NO": 999, "REV_AT_EPOCH": 77752, "BSTAR": 0.00036155709, "MEAN_MOTION_DOT": 6.3e-06, "MEAN_MOTION_DDOT": 0}, "tle": {"line1": "1 37594U 99025EKN 25346.05076849  .00000630  00000+0  36156-3 0  9994", "line2": "2 37594  98.7348  15.4051 0085021 271.7365  87.4070 14.11116962777528"}}, "geometry": {"type": "Point", "coordinates": [14.964588000269698, 32.49370168385112]}}, {"type": "Feature", "properties": {"norad_id": 37600, "name": "FENGYUN 1C DEB", "group": "fengyun-1c-debris", "lat": 75.37359448910158, "lon": 4.920155368125897, "alt_km": 827.750062234466, "timestamp": "2025-12-17T09:00:17.437551+00:00", "meta": {"OBJECT_NAME": "FENGYUN 1C DEB", "OBJECT_ID": "1999-025EKU", "EPOCH": "2025-12-16T06:29:34.368288", "MEAN_MOTION": 13.82578556, "ECCENTRICITY": 0.03567631, "INCLINATION": 98.9344, "RA_OF_ASC_NODE": 146.801, "ARG_OF_PERICENTER": 39.9927, "MEAN_ANOMALY": 322.6928, "EPHEMERIS_TYPE": 0, "CLASSIFICATION_TYPE": "U", "NORAD_CAT_ID": 37600, "ELEMENT_SET_NO": 999, "REV_AT_EPOCH": 88536, "BSTAR": 0.001794855, "MEAN_MOTION_DOT": 3.134e-05, "MEAN_MOTION_DDOT": 0}, "tle": {"line1": "1 37600U 99025EKU 25350.27053667  .00003134  00000+0  17949-2 0  9994", "line2": "2 37600  98.9344 146.8010 0356763  39.9927 322.6928 13.82578556885366"}}, "geometry": {"type": "Point", "coordinates": [4.920155368125897, 75.37359448910158]}}, {"type": "Feature", "properties": {"norad_id": 37683, "name": "FENGYUN 1C DEB", "group": "fengyun-1c-debris", "lat": -55.837583762482055, "lon": -77.85555502662146, "alt_km": 1578.86584460839, "timestamp": "2025-12-17T09:00:17.437561+00:00", "meta": {"OBJECT_NAME": "FENGYUN 1C DEB", "OBJECT_ID": "1999-025EKY", "EPOCH": "2025-12-16T14:04:04.253376", "MEAN_MOTION": 13.31921563, "ECCENTRICITY": 0.05852836, "INCLINATION": 98.0024, "RA_OF_ASC_NODE": 269.5626, "ARG_OF_PERICENTER": 115.2366, "MEAN_ANOMALY": 8.0049, "EPHEMERIS_TYPE": 0, "CLASSIFICATION_TYPE": "U", "NORAD_CAT_ID": 37683, "ELEMENT_SET_NO": 999, "REV_AT_EPOCH": 29291, "BSTAR": 0.0012826469, "MEAN_MOTION_DOT": 1.595e-05, "MEAN_MOTION_DDOT": 0}, "tle": {"line1": "1 37683U 99025EKY 25350.58616034  .00001595  00000+0  12826-2 0  9990", "line2": "2 37683  98.0024 269.5626 0585283 115.2366   8.0049 13.31921563292911"}}, "geometry": {"type": "Point", "coordinates": [-77.85555502662146, -55.837583762482055]}}, {"type": "Feature", "properties": {"norad_id": 37686, "name": "FENGYUN 1C DEB", "group": "fengyun-1c-debris", "lat": 20.09347945569917, "lon": 5.9432288660692265, "alt_km": 833.6921692035994, "timestamp": "2025-12-17T09:00:17.437571+00:00", "meta": {"OBJECT_NAME": "FENGYUN 1C DEB", "OBJECT_ID": "1999-025ELB", "EPOCH": "2025-12-15T20:02:19.291200", "MEAN_MOTION": 13.35366399, "ECCENTRICITY": 0.03959537, "INCLINATION": 99.0216, "RA_OF_ASC_NODE": 7.9106, "ARG_OF_PERICENTER": 34.5937, "MEAN_ANOMALY": 145.9696, "EPHEMERIS_TYPE": 0, "CLASSIFICATION_TYPE": "U", "NORAD_CAT_ID": 37686, "ELEMENT_SET_NO": 999, "REV_AT_EPOCH": 60668, "BSTAR": 0.00056833835, "MEAN_MOTION_DOT": 4.14e-06, "MEAN_MOTION_DDOT": 0}, "tle": {"line1": "1 37686U 99025ELB 25349.83494550  .00000414  00000+0  56834-3 0  9993", "line2": "2 37686  99.0216   7.9106 0395953  34.5937 145.9696 13.35366399606681"}}, "geometry": {"type": "Point", "coordinates": [5.9432288660692265, 20.09347945569917]}}, {"type": "Feature", "properties": {"norad_id": 37687, "name": "FENGYUN 1C DEB", "group": "fengyun-1c-debris", "lat": -3.245041152917912, "lon": -154.53007619645842, "alt_km": 1180.714505519274, "timestamp": "2025-12-17T09:00:17.437581+00:00", "meta": {"OBJECT_NAME": "FENGYUN 1C DEB", "OBJECT_ID": "1999-025ELC", "EPOCH": "2025-12-14T21:46:20.279424", "MEAN_MOTION": 13.85346082, "ECCENTRICITY": 0.03333739, "INCLINATION": 98.2067, "RA_OF_ASC_NODE": 23.7727, "ARG_OF_PERICENTER": 352.7982, "MEAN_ANOMALY": 129.6123, "EPHEMERIS_TYPE": 0, "CLASSIFICATION_TYPE": "U", "NORAD_CAT_ID": 37687, "ELEMENT_SET_NO": 999, "REV_AT_EPOCH": 83284, "BSTAR": 0.0025058041, "MEAN_MOTION_DOT": 4.365e-05, "MEAN_MOTION_DDOT": 0}, "tle": {"line1": "1 37687U 99025ELC 25348.90717916  .00004365  00000+0  25058-2 0  9997", "line2": "2 37687  98.2067  23.7727 0333373 352.7982 129.6123 13.85346082832840"}}, "geometry": {"type": "Point", "coordinates": [-154.53007619645842, -3.245041152917912]}}, {"type": "Feature", "properties": {"norad_id": 37689, "name": "FENGYUN 1C DEB", "group": "fengyun-1c-debris", "lat": -7.691350808243332, "lon": -148.6594951792543, "alt_km": 722.0396723831072, "timestamp": "2025-12-17T09:00:17.437591+00:00", "meta": {"OBJECT_NAME": "FENGYUN 1C DEB", "OBJECT_ID": "1999-025ELE", "EPOCH": "2025-12-16T22:11:39.439392", "MEAN_MOTION": 14.48718217, "ECCENTRICITY": 0.00208957, "INCLINATION": 98.9198, "RA_OF_ASC_NODE": 32.0803, "ARG_OF_PERICENTER": 227.3129, "MEAN_ANOMALY": 132.6303, "EPHEMERIS_TYPE": 0, "CLASSIFICATION_TYPE": "U", "NORAD_CAT_ID": 37689, "ELEMENT_SET_NO": 999, "REV_AT_EPOCH": 57873, "BSTAR": 0.0018942734, "MEAN_MOTION_DOT": 7.118e-05, "MEAN_MOTION_DDOT": 0}, "tle": {"line1": "1 37689U 99025ELE 25350.92476203  .00007118  00000+0  18943-2 0  9999", "line2": "2 37689  98.9198  32.0803 0020895 227.3129 132.6303 14.48718217578736"}}, "geometry": {"type": "Point", "coordinates": [-148.6594951792543, -7.691350808243332]}}]}